NORAD_CAT_ID,OBJECT_NAME,OBJECT_TYPE,EPOCH,MEAN_MOTION,ECCENTRICITY,INCLINATION,RA_OF_ASC_NODE,ARG_OF_PERICENTER,MEAN_ANOMALY,BSTAR,MEAN_MOTION_DOT,MEAN_MOTION_DDOT,TLE_LINE0,TLE_LINE1,TLE_LINE2,SEMIMAJOR_AXIS,PERIOD,APOGEE,PERIGEE,DECAYED
54094.0,STARLINK-5219,PAYLOAD,2024-06-04 19:27:56,15.08842255,0.0001525,53.2189,339.9423,82.4554,277.6611,6.2113e-05,7.01e-06,0.0,0 STARLINK-5219,1 54094U 22136AV  24156.81107118  .00000701  00000-0  62113-4 0  9996,2 54094  53.2189 339.9423 0001525  82.4554 277.6611 15.08842255 90409,6917.873,95.437,540.793,538.684,0.0
54094.0,STARLINK-5219,PAYLOAD,2024-06-05 05:00:14,15.08830941,0.0001926,53.217,338.1567,68.8549,291.2649,-3.1305e-05,-7.86e-06,0.0,0 STARLINK-5219,1 54094U 22136AV  24157.20849962 -.00000786  00000-0 -31305-4 0  9994,2 54094  53.2170 338.1567 0001926  68.8549 291.2649 15.08830941 89990,6917.908,95.438,541.105,538.441,0.0
54094.0,STARLINK-5219,PAYLOAD,2024-06-05 20:54:07,15.08832768,0.0001695,53.2196,335.1832,68.1526,291.9647,-2.4868e-05,-6.84e-06,0.0,0 STARLINK-5219,1 54094U 22136AV  24157.87091711 -.00000684  00000-0 -24868-4 0  9991,2 54094  53.2196 335.1832 0001695  68.1526 291.9647 15.08832768 90560,6917.902,95.438,540.94,538.595,0.0
54094.0,STARLINK-5219,PAYLOAD,2024-06-05 22:29:30,15.0882466,0.0001899,53.2194,334.8855,69.468,290.6515,0.00018548,2.664e-05,0.0,0 STARLINK-5219,1 54094U 22136AV  24157.93716177  .00002664  00000-0  18548-3 0  9993,2 54094  53.2194 334.8855 0001899  69.4680 290.6515 15.08824660 90102,6917.927,95.439,541.106,538.479,0.0
54094.0,STARLINK-5219,PAYLOAD,2024-06-06 04:51:03,15.08837106,0.0002972,53.2189,333.6973,76.6043,283.5281,1.7055e-05,-1.7e-07,0.0,0 STARLINK-5219,1 54094U 22136AV  24158.20212162 -.00000017  00000-0  17055-4 0  9993,2 54094  53.2189 333.6973 0002972  76.6043 283.5281 15.08837106 90144,6917.889,95.438,541.81,537.698,0.0
54094.0,STARLINK-5219,PAYLOAD,2024-06-07 20:35:40,15.08842252,0.000112,53.2183,326.2631,96.8161,263.2959,0.00010552,1.392e-05,0.0,0 STARLINK-5219,1 54094U 22136AV  24159.85811080  .00001392  00000-0  10552-3 0  9999,2 54094  53.2183 326.2631 0001120  96.8161 263.2959 15.08842252 90860,6917.874,95.437,540.513,538.964,0.0
54094.0,STARLINK-5219,PAYLOAD,2024-06-08 04:32:36,15.08837153,0.0001318,53.2142,324.7765,89.761,270.3533,2.5233e-05,1.14e-06,0.0,0 STARLINK-5219,1 54094U 22136AV  24160.18931352  .00000114  00000-0  25233-4 0  9996,2 54094  53.2142 324.7765 0001318  89.7610 270.3533 15.08837153 90440,6917.889,95.438,540.666,538.842,0.0
54094.0,STARLINK-5219,PAYLOAD,2024-06-08 20:26:27,15.08845621,0.0001727,53.2151,321.8012,101.05,259.0687,0.00029953,4.483e-05,0.0,0 STARLINK-5219,1 54094U 22136AV  24160.85170927  .00004483  00000-0  29953-3 0  9998,2 54094  53.2151 321.8012 0001727 101.0500 259.0687 15.08845621 90547,6917.863,95.437,540.923,538.533,0.0
54094.0,STARLINK-5219,PAYLOAD,2024-06-09 04:23:24,15.08824889,0.0001937,53.2117,320.3144,104.3784,255.7424,1.0084e-05,-1.28e-06,0.0,0 STARLINK-5219,1 54094U 22136AV  24161.18292110 -.00000128  00000-0  10084-4 0  9993,2 54094  53.2117 320.3144 0001937 104.3784 255.7424 15.08824889 91065,6917.927,95.439,541.132,538.452,0.0
54094.0,STARLINK-5219,PAYLOAD,2024-06-09 13:55:43,15.08829453,0.0001683,53.2154,318.5319,94.554,265.5644,1.5715e-05,-3.8e-07,0.0,0 STARLINK-5219,1 54094U 22136AV  24161.58036211 -.00000038  00000-0  15715-4 0  9991,2 54094  53.2154 318.5319 0001683  94.5540 265.5644 15.08829453 90656,6917.913,95.438,540.942,538.613,0.0
54094.0,STARLINK-5219,PAYLOAD,2024-06-09 20:17:15,15.0883841,0.0001331,53.2166,317.3429,93.38,266.7344,0.00012539,1.708e-05,0.0,0 STARLINK-5219,1 54094U 22136AV  24161.84531793  .00001708  00000-0  12539-3 0  9999,2 54094  53.2166 317.3429 0001331  93.3800 266.7344 15.08838410 91164,6917.885,95.438,540.671,538.829,0.0
54094.0,STARLINK-5219,PAYLOAD,2024-06-10 13:46:30,15.08841452,0.0001554,53.2164,314.0722,95.2274,264.8895,8.5605e-05,1.075e-05,0.0,0 STARLINK-5219,1 54094U 22136AV  24162.57395931  .00001075  00000-0  85605-4 0  9994,2 54094  53.2164 314.0722 0001554  95.2274 264.8895 15.08841452 90805,6917.876,95.437,540.816,538.666,0.0
54094.0,STARLINK-5219,PAYLOAD,2024-06-10 16:57:16,15.0884751,0.0001442,53.2158,313.4776,86.7776,273.3381,0.00019231,2.775e-05,0.0,0 STARLINK-5219,1 54094U 22136AV  24162.70643646  .00002775  00000-0  19231-3 0  9997,2 54094  53.2158 313.4776 0001442  86.7776 273.3381 15.08847510 90826,6917.857,95.437,540.72,538.725,0.0
54094.0,STARLINK-5219,PAYLOAD,2024-06-11 02:29:34,15.08845903,0.0001119,53.2159,311.6936,87.7296,272.3824,0.00021113,3.074e-05,0.0,0 STARLINK-5219,1 54094U 22136AV  24163.10387719  .00003074  00000-0  21113-3 0  9993,2 54094  53.2159 311.6936 0001119  87.7296 272.3824 15.08845903 91358,6917.862,95.437,540.501,538.953,0.0
54094.0,STARLINK-5219,PAYLOAD,2024-06-11 13:37:17,15.08838512,0.0001216,53.2176,309.6146,90.0187,270.0944,0.0002503,3.698e-05,0.0,0 STARLINK-5219,1 54094U 22136AV  24163.56756079  .00003698  00000-0  25030-3 0  9996,2 54094  53.2176 309.6146 0001216  90.0187 270.0944 15.08838512 90952,6917.885,95.438,540.591,538.909,0.0
54094.0,STARLINK-5219,PAYLOAD,2024-06-11 16:48:03,15.08843161,0.0001136,53.2177,309.0205,98.845,261.267,0.00028692,4.282e-05,0.0,0 STARLINK-5219,1 54094U 22136AV  24163.70003741  .00004282  00000-0  28692-3 0  9990,2 54094  53.2177 309.0205 0001136  98.8450 261.2670 15.08843161 90979,6917.871,95.437,540.522,538.95,0.0
54094.0,STARLINK-5219,PAYLOAD,2024-06-12 13:28:04,15.08834796,0.0001243,53.2177,305.1554,98.9844,261.1289,-6.2908e-05,-1.289e-05,0.0,0 STARLINK-5219,1 54094U 22136AV  24164.56116439 -.00001289  00000-0 -62908-4 0  9999,2 54094  53.2177 305.1554 0001243  98.9844 261.1289 15.08834796 91576,6917.896,95.438,540.621,538.901,0.0
54094.0,STARLINK-5219,PAYLOAD,2024-06-12 19:49:37,15.08835071,0.000132,53.2172,303.9644,93.0488,267.0655,-3.8702e-05,-9.04e-06,0.0,0 STARLINK-5219,1 54094U 22136AV  24164.82612543 -.00000904  00000-0 -38702-4 0  9993,2 54094  53.2172 303.9644 0001320  93.0488 267.0655 15.08835071 91145,6917.895,95.438,540.674,538.847,0.0
54094.0,STARLINK-5219,PAYLOAD,2024-06-13 14:54:14,15.08844354,0.0001207,53.2168,300.3949,91.9841,268.1289,9.1741e-05,1.173e-05,0.0,0 STARLINK-5219,1 54094U 22136AV  24165.62100202  .00001173  00000-0  91741-4 0  9995,2 54094  53.2168 300.3949 0001207  91.9841 268.1289 15.08844354 91265,6917.867,95.437,540.567,538.897,0.0
54094.0,STARLINK-5219,PAYLOAD,2024-06-13 18:05:00,15.08850519,0.0001167,53.2165,299.7994,85.7133,274.3993,0.00022053,3.225e-05,0.0,0 STARLINK-5219,1 54094U 22136AV  24165.75347932  .00003225  00000-0  22053-3 0  9991,2 54094  53.2165 299.7994 0001167  85.7133 274.3993 15.08850519 91286,6917.848,95.437,540.521,538.906,0.0
54094.0,STARLINK-5219,PAYLOAD,2024-06-14 14:45:02,15.08838243,0.0001082,53.2148,295.933,81.5928,278.5187,9.6376e-05,1.246e-05,0.0,0 STARLINK-5219,1 54094U 22136AV  24166.61460677  .00001246  00000-0  96376-4 0  9990,2 54094  53.2148 295.9330 0001082  81.5928 278.5187 15.08838243 91417,6917.886,95.438,540.499,539.002,0.0
54094.0,STARLINK-5219,PAYLOAD,2024-06-14 17:55:48,15.08845596,0.0001168,53.2165,295.3387,79.2092,280.9031,0.00018656,2.683e-05,0.0,0 STARLINK-5219,1 54094U 22136AV  24166.74708346  .00002683  00000-0  18656-3 0  9992,2 54094  53.2165 295.3387 0001168  79.2092 280.9031 15.08845596 91439,6917.863,95.437,540.536,538.92,0.0
54094.0,STARLINK-5219,PAYLOAD,2024-06-15 14:35:48,15.08853032,0.0001184,53.2164,291.4749,86.9396,273.1731,9.4424e-05,1.216e-05,0.0,0 STARLINK-5219,1 54094U 22136AV  24167.60819843  .00001216  00000-0  94424-4 0  9992,2 54094  53.2164 291.4749 0001184  86.9396 273.1731 15.08853032 91566,6917.841,95.437,540.525,538.886,0.0
54094.0,STARLINK-5219,PAYLOAD,2024-06-16 14:26:35,15.08843649,0.0001242,53.2173,287.0137,93.2246,266.8888,0.00014446,2.012e-05,0.0,0 STARLINK-5219,1 54094U 22136AV  24168.60180036  .00002012  00000-0  14446-3 0  9998,2 54094  53.2173 287.0137 0001242  93.2246 266.8888 15.08843649 91710,6917.869,95.437,540.593,538.875,0.0
54094.0,STARLINK-5219,PAYLOAD,2024-06-16 17:37:21,15.08848787,0.0001577,53.2187,286.4168,100.9666,259.1504,8.983e-05,1.142e-05,0.0,0 STARLINK-5219,1 54094U 22136AV  24168.73427725  .00001142  00000-0  89830-4 0  9994,2 54094  53.2187 286.4168 0001577 100.9666 259.1504 15.08848787 91735,6917.854,95.437,540.809,538.628,0.0
54094.0,STARLINK-5219,PAYLOAD,2024-06-17 14:17:23,15.08838359,0.0001427,53.2188,282.5545,95.7516,264.3639,-2.4512e-05,-6.78e-06,0.0,0 STARLINK-5219,1 54094U 22136AV  24169.59540665 -.00000678  00000-0 -24512-4 0  9999,2 54094  53.2188 282.5545 0001427  95.7516 264.3639 15.08838359 91866,6917.885,95.438,540.738,538.763,0.0
54094.0,STARLINK-5219,PAYLOAD,2024-06-18 14:08:09,15.08843718,0.000131,53.2182,278.0957,97.3525,262.7616,0.00013096,1.797e-05,0.0,0 STARLINK-5219,1 54094U 22136AV  24170.58900183  .00001797  00000-0  13096-3 0  9990,2 54094  53.2182 278.0957 0001310  97.3525 262.7616 15.08843718 92487,6917.869,95.437,540.64,538.828,0.0
54094.0,STARLINK-5219,PAYLOAD,2024-06-19 13:58:58,15.08829402,0.000131,53.2178,273.6338,92.2284,267.8859,6.6424e-05,7.69e-06,0.0,0 STARLINK-5219,1 54094U 22136AV  24171.58261606  .00000769  00000-0  66424-4 0  9993,2 54094  53.2178 273.6338 0001310  92.2284 267.8859 15.08829402 92638,6917.913,95.438,540.684,538.872,0.0
54094.0,STARLINK-5219,PAYLOAD,2024-06-20 05:52:49,15.08839111,0.0001409,53.2177,270.6598,89.4219,270.6934,4.0219e-05,3.52e-06,0.0,0 STARLINK-5219,1 54094U 22136AV  24172.24501338  .00000352  00000-0  40219-4 0  9998,2 54094  53.2177 270.6598 0001409  89.4219 270.6934 15.08839111 92732,6917.883,95.438,540.723,538.773,0.0
54094.0,STARLINK-5219,PAYLOAD,2024-06-20 13:49:44,15.08845233,0.0001416,53.2178,269.1733,89.4446,270.6708,8.5167e-05,1.068e-05,0.0,0 STARLINK-5219,1 54094U 22136AV  24172.57620801  .00001068  00000-0  85167-4 0  9997,2 54094  53.2178 269.1733 0001416  89.4446 270.6708 15.08845233 92312,6917.864,95.437,540.709,538.75,0.0
